AL MUNTHER              
1 63240U 25052AG  26068.64540749  .00017933  00000+0  65015-3 0  9992
2 63240  97.4001 323.9152 0008027 130.7043 229.4895 15.28381521 54798
STARLINK-34028          
1 63973U 25099X   26068.36251445  .00026121  00000+0  95511-3 0  9990
2 63973  43.0007 174.8226 0001832 273.3040  86.7602 15.27589150 47325
